OBJECT_NAME,OBJECT_ID,EPOCH,MEAN_MOTION,ECCENTRICITY,INCLINATION,RA_OF_ASC_NODE,ARG_OF_PERICENTER,MEAN_ANOMALY,EPHEMERIS_TYPE,CLASSIFICATION_TYPE,NORAD_CAT_ID,ELEMENT_SET_NO,REV_AT_EPOCH,BSTAR,MEAN_MOTION_DOT,MEAN_MOTION_DDOT
STARLINK-36956,2026-039Z,2026-07-15T23:25:52.874688,15.27577272,.00034754,43.0037,44.3950,257.9989,102.0473,0,U,68009,999,2132,.3792059E-3,.10187E-3,0
STARLINK-36953,2026-039AA,2026-07-16T13:18:29.625984,15.27591312,.00010304,42.9980,40.9836,342.0009,18.0806,0,U,68010,999,2141,.31951394E-3,.8544E-4,0
STARLINK-36991,2026-039AB,2026-07-16T14:47:06.353664,15.27602313,.00005619,43.0034,40.6096,291.5733,68.5059,0,U,68011,999,2142,.59813144E-3,.16245E-3,0
STARLINK-36936,2026-039AC,2026-07-16T14:35:59.794944,15.27586315,.0000574,43.0004,40.5322,274.9891,85.0895,0,U,68012,999,2142,.24730388E-3,.6551E-4,0
STARLINK-36967,2026-039AD,2026-07-16T15:01:54.390144,15.27590846,.00015889,43.0044,40.6859,268.9406,91.1264,0,U,68013,999,2142,.4311271E-3,.11624E-3,0
STARLINK-36985,2026-039AE,2026-07-16T14:41:32.754624,15.27593367,.00005109,42.9995,40.5499,73.5498,286.5409,0,U,68014,999,2142,.33239439E-3,.89E-4,0
STARLINK-36335,2026-040A,2026-07-16T09:40:29.276832,15.33437116,.0002592,97.2837,145.6043,81.6476,278.5061,0,U,68015,999,2118,.18530347E-3,.5911E-4,0
STARLINK-36923,2026-040B,2026-07-16T09:32:39.568416,15.33442710,.0002674,97.2833,145.6090,85.1347,275.0201,0,U,68016,999,2118,.33174243E-3,.1065E-3,0
STARLINK-36568,2026-040C,2026-07-16T09:28:44.271840,15.33444454,.00023513,97.2827,145.6147,90.3403,269.8110,0,U,68017,999,2118,.27642655E-3,.886E-4,0
STARLINK-36930,2026-040D,2026-07-16T09:36:33.648480,15.33441288,.00033551,97.2806,145.6064,99.7727,260.3895,0,U,68018,999,2118,.84286314E-4,.2647E-4,0
STARLINK-36921,2026-040E,2026-07-16T14:02:48.964416,15.33437450,.00022876,97.2833,145.8146,89.2901,270.8604,0,U,68019,999,2121,.23189268E-3,.7417E-4,0
STARLINK-36928,2026-040F,2026-07-16T09:24:49.680288,15.33439692,.00025006,97.2835,145.6179,90.6049,269.5480,0,U,68020,999,2118,.24049156E-3,.7696E-4,0
STARLINK-36858,2026-040G,2026-07-16T10:43:08.241888,15.33448225,.00025469,97.2842,145.6954,87.8678,272.2856,0,U,68021,999,2122,.2460516E-3,.7878E-4,0
STARLINK-36916,2026-040H,2026-07-16T09:16:58.580832,15.33419830,.00022691,97.2840,145.6196,95.0869,265.0632,0,U,68022,999,2118,.31956751E-3,.10248E-3,0
STARLINK-36871,2026-040J,2026-07-16T09:13:04.797984,15.33436328,.0002308,97.2834,145.6288,79.0784,281.0719,0,U,68023,999,2118,.25335727E-3,.8111E-4,0
STARLINK-36891,2026-040K,2026-07-16T09:05:14.817408,15.33430884,.00023367,97.2847,145.6347,83.4475,276.7034,0,U,68024,999,2118,.95706089E-4,.3015E-4,0
STARLINK-36378,2026-040L,2026-07-16T08:57:25.153920,15.33434701,.00023957,97.2842,145.6424,81.3119,278.8395,0,U,68025,999,2118,.18829713E-3,.6007E-4,0
STARLINK-36884,2026-040M,2026-07-16T13:43:14.378016,15.33436935,.00022727,97.2843,145.8328,86.1105,274.0398,0,U,68026,999,2121,.16649221E-3,.5303E-4,0
STARLINK-36940,2026-040N,2026-07-16T14:26:18.303936,15.33444650,.00021035,97.2832,145.9495,89.4670,270.6814,0,U,68027,999,2122,.4244906E-3,.13654E-3,0
STARLINK-36944,2026-040Q,2026-07-16T10:27:27.986976,15.33446232,.00018903,97.2832,145.7113,124.6590,235.4832,0,U,68029,999,2119,.38511416E-3,.12379E-3,0
STARLINK-36942,2026-040R,2026-07-16T10:23:33.477504,15.33439490,.00020033,97.2839,145.7147,84.5434,275.6038,0,U,68030,999,2119,.30916359E-3,.9918E-4,0
STARLINK-36913,2026-040S,2026-07-16T10:19:38.751168,15.33483247,.00014903,97.2841,145.7150,117.0217,243.1178,0,U,68031,999,2119,.77364472E-3,.25014E-3,0
STARLINK-36935,2026-040T,2026-07-16T09:48:19.031040,15.33439527,.00021619,97.2847,145.7489,105.1005,255.0478,0,U,68032,999,2119,.26162728E-3,.8379E-4,0
STARLINK-36947,2026-040U,2026-07-16T10:15:43.633440,15.33436705,.00020776,97.2837,145.7230,76.5708,283.5766,0,U,68033,999,2119,.32064821E-3,.10288E-3,0
STARLINK-36939,2026-040V,2026-07-16T10:00:03.964320,15.33441159,.00023015,97.2844,145.7335,102.1984,257.9517,0,U,68034,999,2119,.29060251E-3,.9318E-4,0
STARLINK-36943,2026-040W,2026-07-16T09:52:13.901664,15.33445691,.00020452,97.2828,145.7479,105.0285,255.1184,0,U,68035,999,2232,.40831924E-3,.13131E-3,0
STARLINK-36906,2026-040X,2026-07-16T10:03:58.718304,15.33441079,.00020877,97.2851,145.7281,101.0710,259.0768,0,U,68036,999,2119,.26332899E-3,.8435E-4,0
STARLINK-36388,2026-040Y,2026-07-16T09:56:08.810304,15.33439452,.00022451,97.2845,145.7389,106.7221,253.4268,0,U,68037,999,2119,.21913703E-3,.7005E-4,0
STARLINK-36895,2026-040Z,2026-07-16T10:07:53.756544,15.33446053,.00020127,97.2836,145.7316,101.9611,258.1858,0,U,68038,999,2119,.35049468E-3,.11258E-3,0
STARLINK-36373,2026-040AA,2026-07-16T10:11:47.689728,15.33433896,.00014933,97.2851,145.7214,102.2882,257.8528,0,U,68039,999,2119,-.99172679E-4,-.3274E-4,0
