STARLINK-36956          
1 68009U 26039Z   26196.97630642  .00010187  00000+0  37921-3 0  9995
2 68009  43.0037  44.3950 0003475 257.9989 102.0473 15.27577272 21325
STARLINK-36953          
1 68010U 26039AA  26197.55450956  .00008544  00000+0  31951-3 0  9991
2 68010  42.9980  40.9836 0001030 342.0009  18.0806 15.27591312 21418
STARLINK-36991          
1 68011U 26039AB  26197.61604576  .00016245  00000+0  59813-3 0  9992
2 68011  43.0034  40.6096 0000561 291.5733  68.5059 15.27602313 21421
STARLINK-36936          
1 68012U 26039AC  26197.60833096  .00006551  00000+0  24730-3 0  9992
2 68012  43.0004  40.5322 0000574 274.9891  85.0895 15.27586315 21429
STARLINK-36967          
1 68013U 26039AD  26197.62632396  .00011624  00000+0  43113-3 0  9998
2 68013  43.0044  40.6859 0001588 268.9406  91.1264 15.27590846 21423
STARLINK-36985          
1 68014U 26039AE  26197.61218466  .00008900  00000+0  33239-3 0  9997
2 68014  42.9995  40.5499 0000510  73.5498 286.5409 15.27593367 21423
STARLINK-36335          
1 68015U 26040A   26197.40311663  .00005911  00000+0  18530-3 0  9996
2 68015  97.2837 145.6043 0002592  81.6476 278.5061 15.33437116 21186
STARLINK-36923          
1 68016U 26040B   26197.39768019  .00010650  00000+0  33174-3 0  9993
2 68016  97.2833 145.6090 0002674  85.1347 275.0201 15.33442710 21186
STARLINK-36568          
1 68017U 26040C   26197.39495685  .00008860  00000+0  27643-3 0  9994
2 68017  97.2827 145.6147 0002351  90.3403 269.8110 15.33444454 21183
STARLINK-36930          
1 68018U 26040D   26197.40038945  .00002647  00000+0  84286-4 0  9993
2 68018  97.2806 145.6064 0003355  99.7727 260.3895 15.33441288 21184
STARLINK-36921          
1 68019U 26040E   26197.58528894  .00007417  00000+0  23189-3 0  9994
2 68019  97.2833 145.8146 0002287  89.2901 270.8604 15.33437450 21213
STARLINK-36928          
1 68020U 26040F   26197.39224167  .00007696  00000+0  24049-3 0  9996
2 68020  97.2835 145.6179 0002500  90.6049 269.5480 15.33439692 21181
STARLINK-36858          
1 68021U 26040G   26197.44662317  .00007878  00000+0  24605-3 0  9996
2 68021  97.2842 145.6954 0002546  87.8678 272.2856 15.33448225 21222
STARLINK-36916          
1 68022U 26040H   26197.38678913  .00010248  00000+0  31957-3 0  9992
2 68022  97.2840 145.6196 0002269  95.0869 265.0632 15.33419830 21181
STARLINK-36871          
1 68023U 26040J   26197.38408331  .00008111  00000+0  25336-3 0  9998
2 68023  97.2834 145.6288 0002308  79.0784 281.0719 15.33436328 21184
STARLINK-36891          
1 68024U 26040K   26197.37864372  .00003015  00000+0  95706-4 0  9996
2 68024  97.2847 145.6347 0002336  83.4475 276.7034 15.33430884 21184
STARLINK-36378          
1 68025U 26040L   26197.37320780  .00006007  00000+0  18830-3 0  9993
2 68025  97.2842 145.6424 0002395  81.3119 278.8395 15.33434701 21188
STARLINK-36884          
1 68026U 26040M   26197.57169419  .00005303  00000+0  16649-3 0  9990
2 68026  97.2843 145.8328 0002272  86.1105 274.0398 15.33436935 21213
STARLINK-36940          
1 68027U 26040N   26197.60160074  .00013654  00000+0  42449-3 0  9998
2 68027  97.2832 145.9495 0002103  89.4670 270.6814 15.33444650 21223
STARLINK-36944          
1 68029U 26040Q   26197.43574059  .00012379  00000+0  38511-3 0  9991
2 68029  97.2832 145.7113 0001890 124.6590 235.4832 15.33446232 21198
STARLINK-36942          
1 68030U 26040R   26197.43302636  .00009918  00000+0  30916-3 0  9999
2 68030  97.2839 145.7147 0002003  84.5434 275.6038 15.33439490 21194
STARLINK-36913          
1 68031U 26040S   26197.43030962  .00025014  00000+0  77364-3 0  9993
2 68031  97.2841 145.7150 0001490 117.0217 243.1178 15.33483247 21196
STARLINK-36935          
1 68032U 26040T   26197.40855360  .00008379  00000+0  26163-3 0  9994
2 68032  97.2847 145.7489 0002161 105.1005 255.0478 15.33439527 21194
STARLINK-36947          
1 68033U 26040U   26197.42758835  .00010288  00000+0  32065-3 0  9996
2 68033  97.2837 145.7230 0002077  76.5708 283.5766 15.33436705 21196
STARLINK-36939          
1 68034U 26040V   26197.41671255  .00009318  00000+0  29060-3 0  9999
2 68034  97.2844 145.7335 0002301 102.1984 257.9517 15.33441159 21191
STARLINK-36943          
1 68035U 26040W   26197.41127201  .00013131  00000+0  40832-3 0  9995
2 68035  97.2828 145.7479 0002045 105.0285 255.1184 15.33445691 22325
STARLINK-36906          
1 68036U 26040X   26197.41942961  .00008435  00000+0  26333-3 0  9995
2 68036  97.2851 145.7281 0002087 101.0710 259.0768 15.33441079 21199
STARLINK-36388          
1 68037U 26040Y   26197.41399086  .00007005  00000+0  21914-3 0  9992
2 68037  97.2845 145.7389 0002245 106.7221 253.4268 15.33439452 21192
STARLINK-36895          
1 68038U 26040Z   26197.42214996  .00011258  00000+0  35049-3 0  9999
2 68038  97.2836 145.7316 0002012 101.9611 258.1858 15.33446053 21197
STARLINK-36373          
1 68039U 26040AA  26197.42485752 -.00003274  00000+0 -99173-4 0  9990
2 68039  97.2851 145.7214 0001493 102.2882 257.8528 15.33433896 21199
